{"type": "FeatureCollection", "features": [ {"type": "Feature", "properties": {"norad_id": 35885, "name": "COSMOS 2251 DEB", "group": "cosmos-2251-debris", "lat": -38.59160537070376, "lon": -68.97046558249572, "alt_km": 766.2447876506722, "timestamp": "2025-12-07T14:37:05.600377+00:00", "meta": {"OBJECT_NAME": "COSMOS 2251 DEB", "OBJECT_ID": "1993-036ATY", "EPOCH": "2025-12-06T15:25:19.901280", "MEAN_MOTION": 14.37501399, "ECCENTRICITY": 0.0022973, "INCLINATION": 74.0277, "RA_OF_ASC_NODE": 306.0211, "ARG_OF_PERICENTER": 28.0952, "MEAN_ANOMALY": 332.1436, "EPHEMERIS_TYPE": 0, "CLASSIFICATION_TYPE": "U", "NORAD_CAT_ID": 35885, "ELEMENT_SET_NO": 999, "REV_AT_EPOCH": 64928, "BSTAR": 0.00059498548, "MEAN_MOTION_DOT": 1.761e-05, "MEAN_MOTION_DDOT": 0}, "tle": {"line1": "1 35885U 93036ATY 25340.64259145  .00001761  00000+0  59499-3 0  9993", "line2": "2 35885  74.0277 306.0211 0022973  28.0952 332.1436 14.37501399649283"}}, "geometry": {"type": "Point", "coordinates": [-68.97046558249572, -38.59160537070376]}}, {"type": "Feature", "properties": {"norad_id": 35888, "name": "COSMOS 2251 DEB", "group": "cosmos-2251-debris", "lat": -65.13572215588322, "lon": -135.41049055820557, "alt_km": 717.4138734209464, "timestamp": "2025-12-07T14:37:05.600387+00:00", "meta": {"OBJECT_NAME": "COSMOS 2251 DEB", "OBJECT_ID": "1993-036AUB", "EPOCH": "2025-12-06T19:21:56.006208", "MEAN_MOTION": 14.58288117, "ECCENTRICITY": 0.00484531, "INCLINATION": 74.0336, "RA_OF_ASC_NODE": 7.9609, "ARG_OF_PERICENTER": 141.8961, "MEAN_ANOMALY": 218.5647, "EPHEMERIS_TYPE": 0, "CLASSIFICATION_TYPE": "U", "NORAD_CAT_ID": 35888, "ELEMENT_SET_NO": 999, "REV_AT_EPOCH": 86187, "BSTAR": 0.00070859263, "MEAN_MOTION_DOT": 3.301e-05, "MEAN_MOTION_DDOT": 0}, "tle": {"line1": "1 35888U 93036AUB 25340.80689822  .00003301  00000+0  70859-3 0  9998", "line2": "2 35888  74.0336   7.9609 0048453 141.8961 218.5647 14.58288117861870"}}, "geometry": {"type": "Point", "coordinates": [-135.41049055820557, -65.13572215588322]}}, {"type": "Feature", "properties": {"norad_id": 35890, "name": "COSMOS 2251 DEB", "group": "cosmos-2251-debris", "lat": -49.23767894327895, "lon": -127.01491368420974, "alt_km": 694.9403796122124, "timestamp": "2025-12-07T14:37:05.600397+00:00", "meta": {"OBJECT_NAME": "COSMOS 2251 DEB", "OBJECT_ID": "1993-036AUD", "EPOCH": "2025-12-06T10:50:49.757856", "MEAN_MOTION": 14.57318595, "ECCENTRICITY": 0.00535192, "INCLINATION": 73.9371, "RA_OF_ASC_NODE": 254.7224, "ARG_OF_PERICENTER": 20.2717, "MEAN_ANOMALY": 340.0554, "EPHEMERIS_TYPE": 0, "CLASSIFICATION_TYPE": "U", "NORAD_CAT_ID": 35890, "ELEMENT_SET_NO": 999, "REV_AT_EPOCH": 65059, "BSTAR": 0.0036493179, "MEAN_MOTION_DOT": 0.0001686, "MEAN_MOTION_DDOT": 0}, "tle": {"line1": "1 35890U 93036AUD 25340.45196479  .00016860  00000+0  36493-2 0  9992", "line2": "2 35890  73.9371 254.7224 0053519  20.2717 340.0554 14.57318595650599"}}, "geometry": {"type": "Point", "coordinates": [-127.01491368420974, -49.23767894327895]}}, {"type": "Feature", "properties": {"norad_id": 35891, "name": "COSMOS 2251 DEB", "group": "cosmos-2251-debris", "lat": -65.44292474809635, "lon": -36.1839109006977, "alt_km": 444.368687989062, "timestamp": "2025-12-07T14:37:05.600408+00:00", "meta": {"OBJECT_NAME": "COSMOS 2251 DEB", "OBJECT_ID": "1993-036AUE", "EPOCH": "2025-12-04T15:01:20.364096", "MEAN_MOTION": 15.32277929, "ECCENTRICITY": 0.0045839, "INCLINATION": 73.9882, "RA_OF_ASC_NODE": 111.2679, "ARG_OF_PERICENTER": 242.1756, "MEAN_ANOMALY": 117.4798, "EPHEMERIS_TYPE": 0, "CLASSIFICATION_TYPE": "U", "NORAD_CAT_ID": 35891, "ELEMENT_SET_NO": 999, "REV_AT_EPOCH": 67096, "BSTAR": 0.0026607, "MEAN_MOTION_DOT": 0.00086647, "MEAN_MOTION_DDOT": 0}, "tle": {"line1": "1 35891U 93036AUE 25338.62593014  .00086647  00000+0  26607-2 0  9991", "line2": "2 35891  73.9882 111.2679 0045839 242.1756 117.4798 15.32277929670960"}}, "geometry": {"type": "Point", "coordinates": [-36.1839109006977, -65.44292474809635]}}, {"type": "Feature", "properties": {"norad_id": 35895, "name": "COSMOS 2251 DEB", "group": "cosmos-2251-debris", "lat": 61.92999937359969, "lon": 144.13318688254353, "alt_km": 744.109240380707, "timestamp": "2025-12-07T14:37:05.600418+00:00", "meta": {"OBJECT_NAME": "COSMOS 2251 DEB", "OBJECT_ID": "1993-036AUJ", "EPOCH": "2025-12-06T07:15:24.373152", "MEAN_MOTION": 14.01480847, "ECCENTRICITY": 0.0198613, "INCLINATION": 74.0491, "RA_OF_ASC_NODE": 358.831, "ARG_OF_PERICENTER": 98.7366, "MEAN_ANOMALY": 263.6319, "EPHEMERIS_TYPE": 0, "CLASSIFICATION_TYPE": "U", "NORAD_CAT_ID": 35895, "ELEMENT_SET_NO": 999, "REV_AT_EPOCH": 58922, "BSTAR": 0.0024851459, "MEAN_MOTION_DOT": 4.44e-05, "MEAN_MOTION_DDOT": 0}, "tle": {"line1": "1 35895U 93036AUJ 25340.30236543  .00004440  00000+0  24851-2 0  9994", "line2": "2 35895  74.0491 358.8310 0198613  98.7366 263.6319 14.01480847589225"}}, "geometry": {"type": "Point", "coordinates": [144.13318688254353, 61.92999937359969]}}, {"type": "Feature", "properties": {"norad_id": 35898, "name": "COSMOS 2251 DEB", "group": "cosmos-2251-debris", "lat": 54.780258841006805, "lon": -28.178066114456186, "alt_km": 532.5486787427044, "timestamp": "2025-12-07T14:37:05.600428+00:00", "meta": {"OBJECT_NAME": "COSMOS 2251 DEB", "OBJECT_ID": "1993-036AUM", "EPOCH": "2025-12-06T04:42:06.695712", "MEAN_MOTION": 14.94546076, "ECCENTRICITY": 0.00792239, "INCLINATION": 73.9919, "RA_OF_ASC_NODE": 310.6798, "ARG_OF_PERICENTER": 95.9742, "MEAN_ANOMALY": 282.4906, "EPHEMERIS_TYPE": 0, "CLASSIFICATION_TYPE": "U", "NORAD_CAT_ID": 35898, "ELEMENT_SET_NO": 999, "REV_AT_EPOCH": 66712, "BSTAR": 0.0010853575, "MEAN_MOTION_DOT": 0.00012471, "MEAN_MOTION_DDOT": 0}, "tle": {"line1": "1 35898U 93036AUM 25340.19591083  .00012471  00000+0  10854-2 0  9998", "line2": "2 35898  73.9919 310.6798 0079223  95.9742 282.4906 14.94546076667125"}}, "geometry": {"type": "Point", "coordinates": [-28.178066114456186, 54.780258841006805]}}, {"type": "Feature", "properties": {"norad_id": 35901, "name": "COSMOS 2251 DEB", "group": "cosmos-2251-debris", "lat": -19.24555880261555, "lon": -140.83348455007228, "alt_km": 556.2670589249401, "timestamp": "2025-12-07T14:37:05.600439+00:00", "meta": {"OBJECT_NAME": "COSMOS 2251 DEB", "OBJECT_ID": "1993-036AUQ", "EPOCH": "2025-12-06T12:33:18.280800", "MEAN_MOTION": 15.061967, "ECCENTRICITY": 0.00064559, "INCLINATION": 74.0121, "RA_OF_ASC_NODE": 35.6525, "ARG_OF_PERICENTER": 1.7582, "MEAN_ANOMALY": 71.928, "EPHEMERIS_TYPE": 0, "CLASSIFICATION_TYPE": "U", "NORAD_CAT_ID": 35901, "ELEMENT_SET_NO": 999, "REV_AT_EPOCH": 86033, "BSTAR": 0.0058349557, "MEAN_MOTION_DOT": 0.00086578, "MEAN_MOTION_DDOT": 0}, "tle": {"line1": "1 35901U 93036AUQ 25340.52312825  .00086578  00000+0  58350-2 0  9997", "line2": "2 35901  74.0121  35.6525 0006455   1.7582  71.9280 15.06196700860336"}}, "geometry": {"type": "Point", "coordinates": [-140.83348455007228, -19.24555880261555]}}, {"type": "Feature", "properties": {"norad_id": 35902, "name": "COSMOS 2251 DEB", "group": "cosmos-2251-debris", "lat": 20.029571568961213, "lon": 57.888040368963146, "alt_km": 870.2876983039268, "timestamp": "2025-12-07T14:37:05.600449+00:00", "meta": {"OBJECT_NAME": "COSMOS 2251 DEB", "OBJECT_ID": "1993-036AUR", "EPOCH": "2025-12-01T03:04:00.207552", "MEAN_MOTION": 14.26791124, "ECCENTRICITY": 0.01016301, "INCLINATION": 73.9836, "RA_OF_ASC_NODE": 255.6555, "ARG_OF_PERICENTER": 12.6385, "MEAN_ANOMALY": 347.7274, "EPHEMERIS_TYPE": 0, "CLASSIFICATION_TYPE": "U", "NORAD_CAT_ID": 35902, "ELEMENT_SET_NO": 999, "REV_AT_EPOCH": 60964, "BSTAR": 0.0014097892, "MEAN_MOTION_DOT": 3.584e-05, "MEAN_MOTION_DDOT": 0}, "tle": {"line1": "1 35902U 93036AUR 25335.12778018  .00003584  00000+0  14098-2 0  9995", "line2": "2 35902  73.9836 255.6555 0101630  12.6385 347.7274 14.26791124609642"}}, "geometry": {"type": "Point", "coordinates": [57.888040368963146, 20.029571568961213]}}, {"type": "Feature", "properties": {"norad_id": 35905, "name": "COSMOS 2251 DEB", "group": "cosmos-2251-debris", "lat": -38.753052323883864, "lon": 54.51557533682455, "alt_km": 566.870373411326, "timestamp": "2025-12-07T14:37:05.600459+00:00", "meta": {"OBJECT_NAME": "COSMOS 2251 DEB", "OBJECT_ID": "1993-036AUU", "EPOCH": "2025-12-05T23:11:04.270560", "MEAN_MOTION": 14.98876189, "ECCENTRICITY": 0.0091036, "INCLINATION": 74.0321, "RA_OF_ASC_NODE": 224.5617, "ARG_OF_PERICENTER": 306.179, "MEAN_ANOMALY": 53.1, "EPHEMERIS_TYPE": 0, "CLASSIFICATION_TYPE": "U", "NORAD_CAT_ID": 35905, "ELEMENT_SET_NO": 999, "REV_AT_EPOCH": 88481, "BSTAR": 0.00094619012, "MEAN_MOTION_DOT": 0.00012441, "MEAN_MOTION_DDOT": 0}, "tle": {"line1": "1 35905U 93036AUU 25339.96602165  .00012441  00000+0  94619-3 0  9993", "line2": "2 35905  74.0321 224.5617 0091036 306.1790  53.1000 14.98876189884812"}}, "geometry": {"type": "Point", "coordinates": [54.51557533682455, -38.753052323883864]}}, {"type": "Feature", "properties": {"norad_id": 35959, "name": "COSMOS 2251 DEB", "group": "cosmos-2251-debris", "lat": 64.54577714267718, "lon": 104.47799324342027, "alt_km": 765.1856560297938, "timestamp": "2025-12-07T14:37:05.600469+00:00", "meta": {"OBJECT_NAME": "COSMOS 2251 DEB", "OBJECT_ID": "1993-036AUZ", "EPOCH": "2025-12-06T16:20:41.150976", "MEAN_MOTION": 14.34129168, "ECCENTRICITY": 0.00213406, "INCLINATION": 74.0321, "RA_OF_ASC_NODE": 323.1556, "ARG_OF_PERICENTER": 45.4818, "MEAN_ANOMALY": 314.8073, "EPHEMERIS_TYPE": 0, "CLASSIFICATION_TYPE": "U", "NORAD_CAT_ID": 35959, "ELEMENT_SET_NO": 999, "REV_AT_EPOCH": 84841, "BSTAR": 0.00022444322, "MEAN_MOTION_DOT": 6.04e-06, "MEAN_MOTION_DDOT": 0}, "tle": {"line1": "1 35959U 93036AUZ 25340.68103184  .00000604  00000+0  22444-3 0  9995", "line2": "2 35959  74.0321 323.1556 0021340  45.4818 314.8073 14.34129168848415"}}, "geometry": {"type": "Point", "coordinates": [104.47799324342027, 64.54577714267718]}}]}